{
"type": "FeatureCollection",
"name": "iitb-campus-boundary",
"crs": { "type": "name", "properties": { "name": "urn:ogc:def:crs:OGC:1.3:CRS84" } },
"features": [
{"type":"Feature","properties":{"fid":1,"name":"IIT Bombay"},"geometry":{"type":"Polygon","coordinates":[[[72.916416573884703,19.125490172070752],[72.916878348174848,19.125827675871907],[72.917427249689567,19.126321582630894],[72.918150405653378,19.127078903460255],[72.918638318110894,19.127679818604676],[72.919100092401052,19.128363048236746],[72.919422463131895,19.128980421979975],[72.919588004858568,19.129614256622567],[72.919605430303477,19.130750213922578],[72.919466026744189,19.131688607538823],[72.919204645070494,19.13328551073451],[72.919143656013318,19.134248584063592],[72.91923949596034,19.135532673098965],[72.919143656013318,19.136824983392746],[72.919065241511205,19.138034971760423],[72.918629605388418,19.140561925671864],[72.917828034922508,19.141327412220196],[72.91728784613025,19.141327412220196],[72.916616966501152,19.141278026098398],[72.915658567031031,19.141393260359621],[72.915118378238787,19.140734777783372],[72.914552051279173,19.140059830416785],[72.914168691491128,19.139533040310869],[72.913584939086604,19.138981555117759],[72.912800794065589,19.138504148537621],[72.91210377626912,19.138174901815958],[72.911337056693029,19.13790327277631],[72.91010856282675,19.137458787929319],[72.909324417805735,19.137302394828215],[72.908400869225432,19.137022533119662],[72.907799691375999,19.136849677121539],[72.906231401333983,19.136421651966387],[72.905525670815067,19.136232332793856],[72.904732813071604,19.136043013404272],[72.903966093495512,19.135812537332672],[72.903443330148178,19.135647911370295],[72.902990268580481,19.135195189127469],[72.902476217955595,19.134437905510463],[72.90217998539211,19.133837014952064],[72.902040581832821,19.133022105085221],[72.90201444366545,19.132223654143978],[72.90207543272264,19.131227642919882],[72.902824726853837,19.130388025486859],[72.904239672980623,19.129309687032944],[72.90577311213282,19.128420669883763],[72.907968718191654,19.12753164795021],[72.911140149165519,19.126543840190738],[72.91309179899558,19.126214569625098],[72.91642180151814,19.125490995251607],[72.916416573884703,19.125490172070752]]]}}
]
}
