{
"type": "FeatureCollection",
"name": "iitb-circular-boundary",
"crs": { "type": "name", "properties": { "name": "urn:ogc:def:crs:OGC:1.3:CRS84" } },
"features": [
{"type":"Feature","properties":{"fid":1,"name":"IIT Bombay"},"geometry":{"type":"Polygon","coordinates":[[[72.903936470239245,19.126319936277564],[72.903401973108231,19.126810967929366],[72.902902611808997,19.127333974653276],[72.902440524683314,19.12788671656152],[72.902017690459189,19.128466826442157],[72.901635919777689,19.129071819900702],[72.901296847439468,19.1296991060034],[72.901001925404344,19.130345998376459],[72.900752416573752,19.131009726713543],[72.900549389382789,19.131687448642335],[72.900393713225085,19.132376261899211],[72.900286054729833,19.133073216759779],[72.900226874907233,19.133775328672154],[72.900216427174385,19.134479591038655],[72.900254756270073,19.135182988091387],[72.900341698063215,19.135882507806294],[72.900476880255724,19.136575154800649],[72.900659723976702,19.137257963158568],[72.900889446261246,19.137928009129709],[72.901165063403269,19.138582423646838],[72.901485395167882,19.139218404608652],[72.901849069845255,19.139833228875379],[72.902254530124594,19.140424263925752],[72.902700039762763,19.140988979125591],[72.903183691019066,19.141524956559742],[72.903703412824584,19.142029901381182],[72.904256979650768,19.142501651632898],[72.904842021039457,19.142938187500683],[72.905456031753602,19.143337639957309],[72.906096382505112,19.143698298761052],[72.906760331213718,19.144018619774521],[72.907445034749131,19.144297231572455],[72.908147561105679,19.144532941310288],[72.908864901957671,19.144724739828437],[72.909593985541434,19.144871805970496],[72.910331689809155,19.144973510096925],[72.911074855797878,19.145029416779167],[72.911820301156752,19.145039286662836],[72.912564833774326,19.145003077491822],[72.913305265447605,19.144920944289115],[72.914038425534514,19.144793238693502],[72.91476117453098,19.144620507454945],[72.915470417514868,19.144403490095119],[72.91616311739881,19.144143115743059],[72.916836307935569,19.14384049915947],[72.917487106419941,19.143496935966549],[72.918112726032845,19.143113897103923],[72.918710487775101,19.142693022534079],[72.919277831939141,19.142236114224449],[72.919812329070155,19.141745128435904],[72.920311690369388,19.141222167350719],[72.920773777495071,19.140669470075778],[72.921196611719196,19.140089403059335],[72.921578382400696,19.13948444996246],[72.921917454738917,19.138857201028294],[72.922212376774041,19.138210341994682],[72.922461885604648,19.13754664259751],[72.922664912795582,19.13686894471391],[72.922820588953314,19.136180150196104],[72.922928247448553,19.135483208447841],[72.922987427271153,19.134781103796666],[72.922997875004,19.134076842715999],[72.922959545908313,19.13337344095175],[72.922872604115184,19.132673910608585],[72.922737421922662,19.13198124725108],[72.922554578201684,19.131298417075101],[72.92232485591714,19.130628344204304],[72.922049238775116,19.129973898166178],[72.921728907010518,19.129337881601366],[72.921365232333144,19.12872301825881],[72.920959772053791,19.12813194132838],[72.920514262415622,19.127567182160838],[72.920030611159333,19.127031159423634],[72.919510889353816,19.126526168738938],[72.918957322527618,19.126054372848493],[72.918372281138943,19.125617792347402],[72.91775827042477,19.125218297026581],[72.917117919673274,19.124857597861176],[72.916453970964668,19.124537239679167],[72.915769267429255,19.124258594541793],[72.915066741072707,19.124022855864052],[72.914349400220729,19.123831033300711],[72.913620316636951,19.123683948419583],[72.912882612369245,19.123582231180848],[72.912139446380507,19.123526317237406],[72.911394001021634,19.123516446067896],[72.910649468404074,19.123552659950438],[72.909909036730781,19.1236348037814],[72.909175876643886,19.123762525740158],[72.908453127647391,19.123935278796779],[72.907743884663518,19.124152323056258],[72.907051184779576,19.124412728929315],[72.906377994242817,19.124715381115905],[72.905727195758445,19.125058983384648],[72.90510157614554,19.125442064127331],[72.904503814403284,19.125862982664877],[72.903936470239245,19.126319936277564]]]}}
]
}
